[{"OBJECT_NAME":"STARLINK-30945","OBJECT_ID":"2024-019X","EPOCH":"2026-03-09T12:20:52.075104","MEAN_MOTION":15.27576786,"ECCENTRICITY":0.00011418,"INCLINATION":42.9976,"RA_OF_ASC_NODE":250.0661,"ARG_OF_PERICENTER":279.3375,"MEAN_ANOMALY":80.7347,"EPHEMERIS_TYPE":0,"CLASSIFICATION_TYPE":"U","NORAD_CAT_ID":58874,"ELEMENT_SET_NO":999,"REV_AT_EPOCH":11905,"BSTAR":1.4061112e-5,"MEAN_MOTION_DOT":1.25e-6,"MEAN_MOTION_DDOT":0},{"OBJECT_NAME":"FENGYUN 1C DEB","OBJECT_ID":"1999-025AQG","EPOCH":"2026-03-09T10:43:06.043872","MEAN_MOTION":15.25746961,"ECCENTRICITY":0.00178142,"INCLINATION":98.9311,"RA_OF_ASC_NODE":250.2123,"ARG_OF_PERICENTER":328.3876,"MEAN_ANOMALY":31.6286,"EPHEMERIS_TYPE":0,"CLASSIFICATION_TYPE":"U","NORAD_CAT_ID":30674,"ELEMENT_SET_NO":999,"REV_AT_EPOCH":98658,"BSTAR":0.015201752,"MEAN_MOTION_DOT":0.00411052,"MEAN_MOTION_DDOT":0}]
